[{
    "OBJECT_NAME": "COSMOS 2251 DEB",
    "OBJECT_ID": "1993-036AXL",
    "EPOCH": "2025-11-20T12:59:50.031456",
    "MEAN_MOTION": 14.61726927,
    "ECCENTRICITY": 0.00117829,
    "INCLINATION": 74.0288,
    "RA_OF_ASC_NODE": 161.6838,
    "ARG_OF_PERICENTER": 245.8255,
    "MEAN_ANOMALY": 114.168,
    "EPHEMERIS_TYPE": 0,
    "CLASSIFICATION_TYPE": "U",
    "NORAD_CAT_ID": 36049,
    "ELEMENT_SET_NO": 999,
    "REV_AT_EPOCH": 85040,
    "BSTAR": 0.00099096083,
    "MEAN_MOTION_DOT": 4.917e-5,
    "MEAN_MOTION_DDOT": 0
},{
    "OBJECT_NAME": "COSMOS 2251 DEB",
    "OBJECT_ID": "1993-036AXM",
    "EPOCH": "2025-11-20T12:04:23.996064",
    "MEAN_MOTION": 15.00549729,
    "ECCENTRICITY": 0.00893309,
    "INCLINATION": 74.0327,
    "RA_OF_ASC_NODE": 239.289,
    "ARG_OF_PERICENTER": 324.1889,
    "MEAN_ANOMALY": 35.3328,
    "EPHEMERIS_TYPE": 0,
    "CLASSIFICATION_TYPE": "U",
    "NORAD_CAT_ID": 36050,
    "ELEMENT_SET_NO": 999,
    "REV_AT_EPOCH": 66701,
    "BSTAR": 0.00068720996,
    "MEAN_MOTION_DOT": 9.407e-5,
    "MEAN_MOTION_DDOT": 0
},{
    "OBJECT_NAME": "COSMOS 2251 DEB",
    "OBJECT_ID": "1993-036AXQ",
    "EPOCH": "2025-11-22T01:11:47.053824",
    "MEAN_MOTION": 14.56798615,
    "ECCENTRICITY": 0.0033726,
    "INCLINATION": 73.8691,
    "RA_OF_ASC_NODE": 192.3663,
    "ARG_OF_PERICENTER": 147.4111,
    "MEAN_ANOMALY": 212.9144,
    "EPHEMERIS_TYPE": 0,
    "CLASSIFICATION_TYPE": "U",
    "NORAD_CAT_ID": 36053,
    "ELEMENT_SET_NO": 999,
    "REV_AT_EPOCH": 87143,
    "BSTAR": 0.0013161,
    "MEAN_MOTION_DOT": 5.912e-5,
    "MEAN_MOTION_DDOT": 0
},{
    "OBJECT_NAME": "COSMOS 2251 DEB",
    "OBJECT_ID": "1993-036AXV",
    "EPOCH": "2025-11-12T02:27:57.726144",
    "MEAN_MOTION": 14.58395321,
    "ECCENTRICITY": 0.00464251,
    "INCLINATION": 74.0221,
    "RA_OF_ASC_NODE": 91.835,
    "ARG_OF_PERICENTER": 232.3147,
    "MEAN_ANOMALY": 127.3804,
    "EPHEMERIS_TYPE": 0,
    "CLASSIFICATION_TYPE": "U",
    "NORAD_CAT_ID": 36058,
    "ELEMENT_SET_NO": 999,
    "REV_AT_EPOCH": 65664,
    "BSTAR": 0.0011395428,
    "MEAN_MOTION_DOT": 5.333e-5,
    "MEAN_MOTION_DDOT": 0
},{
    "OBJECT_NAME": "COSMOS 2251 DEB",
    "OBJECT_ID": "1993-036AXX",
    "EPOCH": "2025-11-21T13:14:01.578624",
    "MEAN_MOTION": 14.41927196,
    "ECCENTRICITY": 0.0014528,
    "INCLINATION": 74.0295,
    "RA_OF_ASC_NODE": 273.8554,
    "ARG_OF_PERICENTER": 14.563,
    "MEAN_ANOMALY": 345.5942,
    "EPHEMERIS_TYPE": 0,
    "CLASSIFICATION_TYPE": "U",
    "NORAD_CAT_ID": 36060,
    "ELEMENT_SET_NO": 999,
    "REV_AT_EPOCH": 84704,
    "BSTAR": 0.00041694,
    "MEAN_MOTION_DOT": 1.341e-5,
    "MEAN_MOTION_DDOT": 0
},{
    "OBJECT_NAME": "COSMOS 2251 DEB",
    "OBJECT_ID": "1993-036AXY",
    "EPOCH": "2025-11-20T11:41:05.229312",
    "MEAN_MOTION": 14.33658075,
    "ECCENTRICITY": 0.00373826,
    "INCLINATION": 74.0257,
    "RA_OF_ASC_NODE": 40.4891,
    "ARG_OF_PERICENTER": 135.258,
    "MEAN_ANOMALY": 225.1598,
    "EPHEMERIS_TYPE": 0,
    "CLASSIFICATION_TYPE": "U",
    "NORAD_CAT_ID": 36061,
    "ELEMENT_SET_NO": 999,
    "REV_AT_EPOCH": 64785,
    "BSTAR": 0.00033121253,
    "MEAN_MOTION_DOT": 9.0e-6,
    "MEAN_MOTION_DDOT": 0
},{
    "OBJECT_NAME": "COSMOS 2251 DEB",
    "OBJECT_ID": "1993-036AYL",
    "EPOCH": "2025-11-17T10:04:40.610208",
    "MEAN_MOTION": 14.34909125,
    "ECCENTRICITY": 0.00232222,
    "INCLINATION": 74.0333,
    "RA_OF_ASC_NODE": 8.9735,
    "ARG_OF_PERICENTER": 85.4659,
    "MEAN_ANOMALY": 274.9145,
    "EPHEMERIS_TYPE": 0,
    "CLASSIFICATION_TYPE": "U",
    "NORAD_CAT_ID": 36073,
    "ELEMENT_SET_NO": 999,
    "REV_AT_EPOCH": 69844,
    "BSTAR": 0.00034701567,
    "MEAN_MOTION_DOT": 9.64e-6,
    "MEAN_MOTION_DDOT": 0
},{
    "OBJECT_NAME": "COSMOS 2251 DEB",
    "OBJECT_ID": "1993-036AYM",
    "EPOCH": "2025-11-19T21:39:16.653312",
    "MEAN_MOTION": 14.43545069,
    "ECCENTRICITY": 0.0042443,
    "INCLINATION": 73.9935,
    "RA_OF_ASC_NODE": 23.0484,
    "ARG_OF_PERICENTER": 121.6905,
    "MEAN_ANOMALY": 238.8401,
    "EPHEMERIS_TYPE": 0,
    "CLASSIFICATION_TYPE": "U",
    "NORAD_CAT_ID": 36074,
    "ELEMENT_SET_NO": 999,
    "REV_AT_EPOCH": 85580,
    "BSTAR": 0.00075521341,
    "MEAN_MOTION_DOT": 2.559e-5,
    "MEAN_MOTION_DDOT": 0
},{
    "OBJECT_NAME": "COSMOS 2251 DEB",
    "OBJECT_ID": "1993-036AYT",
    "EPOCH": "2025-11-21T06:49:25.883040",
    "MEAN_MOTION": 14.33036464,
    "ECCENTRICITY": 0.0090907,
    "INCLINATION": 74.0659,
    "RA_OF_ASC_NODE": 312.2136,
    "ARG_OF_PERICENTER": 344.9179,
    "MEAN_ANOMALY": 14.9263,
    "EPHEMERIS_TYPE": 0,
    "CLASSIFICATION_TYPE": "U",
    "NORAD_CAT_ID": 36366,
    "ELEMENT_SET_NO": 999,
    "REV_AT_EPOCH": 85981,
    "BSTAR": 0.0024261,
    "MEAN_MOTION_DOT": 6.938e-5,
    "MEAN_MOTION_DDOT": 0
},{
    "OBJECT_NAME": "COSMOS 2251 DEB",
    "OBJECT_ID": "1993-036AYU",
    "EPOCH": "2025-11-19T14:41:41.384256",
    "MEAN_MOTION": 13.86169183,
    "ECCENTRICITY": 0.0262519,
    "INCLINATION": 74.1005,
    "RA_OF_ASC_NODE": 270.4244,
    "ARG_OF_PERICENTER": 348.3619,
    "MEAN_ANOMALY": 11.1508,
    "EPHEMERIS_TYPE": 0,
    "CLASSIFICATION_TYPE": "U",
    "NORAD_CAT_ID": 36367,
    "ELEMENT_SET_NO": 999,
    "REV_AT_EPOCH": 57209,
    "BSTAR": 0.0012915,
    "MEAN_MOTION_DOT": 1.929e-5,
    "MEAN_MOTION_DDOT": 0
},{
    "OBJECT_NAME": "COSMOS 2251 DEB",
    "OBJECT_ID": "1993-036AYW",
    "EPOCH": "2025-11-20T16:12:40.709088",
    "MEAN_MOTION": 14.72923674,
    "ECCENTRICITY": 0.0013772,
    "INCLINATION": 74.0302,
    "RA_OF_ASC_NODE": 113.7405,
    "ARG_OF_PERICENTER": 196.3273,
    "MEAN_ANOMALY": 163.7457,
    "EPHEMERIS_TYPE": 0,
    "CLASSIFICATION_TYPE": "U",
    "NORAD_CAT_ID": 36369,
    "ELEMENT_SET_NO": 999,
    "REV_AT_EPOCH": 85597,
    "BSTAR": 0.0017386372,
    "MEAN_MOTION_DOT": 0.00011152,
    "MEAN_MOTION_DDOT": 0
},{
    "OBJECT_NAME": "COSMOS 2251 DEB",
    "OBJECT_ID": "1993-036AYY",
    "EPOCH": "2025-11-14T01:06:27.293472",
    "MEAN_MOTION": 14.69794379,
    "ECCENTRICITY": 0.00122401,
    "INCLINATION": 74.0138,
    "RA_OF_ASC_NODE": 217.2545,
    "ARG_OF_PERICENTER": 259.8935,
    "MEAN_ANOMALY": 100.0855,
    "EPHEMERIS_TYPE": 0,
    "CLASSIFICATION_TYPE": "U",
    "NORAD_CAT_ID": 36371,
    "ELEMENT_SET_NO": 999,
    "REV_AT_EPOCH": 71023,
    "BSTAR": 0.0050441716,
    "MEAN_MOTION_DOT": 0.00030251,
    "MEAN_MOTION_DDOT": 0
},{
    "OBJECT_NAME": "COSMOS 2251 DEB",
    "OBJECT_ID": "1993-036AZG",
    "EPOCH": "2025-11-16T09:38:00.433824",
    "MEAN_MOTION": 14.36020181,
    "ECCENTRICITY": 0.00449533,
    "INCLINATION": 74.0133,
    "RA_OF_ASC_NODE": 355.2527,
    "ARG_OF_PERICENTER": 131.9658,
    "MEAN_ANOMALY": 244.5172,
    "EPHEMERIS_TYPE": 0,
    "CLASSIFICATION_TYPE": "U",
    "NORAD_CAT_ID": 36379,
    "ELEMENT_SET_NO": 999,
    "REV_AT_EPOCH": 64450,
    "BSTAR": 0.00048213044,
    "MEAN_MOTION_DOT": 1.392e-5,
    "MEAN_MOTION_DDOT": 0
},{
    "OBJECT_NAME": "COSMOS 2251 DEB",
    "OBJECT_ID": "1993-036AZN",
    "EPOCH": "2025-11-20T15:45:21.904992",
    "MEAN_MOTION": 14.71961695,
    "ECCENTRICITY": 0.01412041,
    "INCLINATION": 73.9702,
    "RA_OF_ASC_NODE": 197.6949,
    "ARG_OF_PERICENTER": 17.1314,
    "MEAN_ANOMALY": 343.4551,
    "EPHEMERIS_TYPE": 0,
    "CLASSIFICATION_TYPE": "U",
    "NORAD_CAT_ID": 36385,
    "ELEMENT_SET_NO": 999,
    "REV_AT_EPOCH": 84777,
    "BSTAR": 0.0015757722,
    "MEAN_MOTION_DOT": 0.00011549,
    "MEAN_MOTION_DDOT": 0
}]
