COSMOS 2251 DEB         
1 36049U 93036AXL 25324.54155129  .00004917  00000+0  99096-3 0  9997
2 36049  74.0288 161.6838 0011782 245.8255 114.1680 14.61726927850409
COSMOS 2251 DEB         
1 36050U 93036AXM 25324.50305551  .00009407  00000+0  68721-3 0  9991
2 36050  74.0327 239.2890 0089330 324.1889  35.3328 15.00549729667016
COSMOS 2251 DEB         
1 36053U 93036AXQ 25326.04985016  .00005912  00000+0  13161-2 0  9999
2 36053  73.8691 192.3663 0033726 147.4111 212.9144 14.56798615871431
COSMOS 2251 DEB         
1 36058U 93036AXV 25316.10275146  .00005333  00000+0  11395-2 0  9990
2 36058  74.0221  91.8350 0046425 232.3147 127.3804 14.58395321656642
COSMOS 2251 DEB         
1 36060U 93036AXX 25325.55140716  .00001341  00000+0  41694-3 0  9997
2 36060  74.0295 273.8554 0014528  14.5630 345.5942 14.41927196847046
COSMOS 2251 DEB         
1 36061U 93036AXY 25324.48686608  .00000900  00000+0  33121-3 0  9990
2 36061  74.0257  40.4891 0037382 135.2580 225.1598 14.33658075647850
COSMOS 2251 DEB         
1 36073U 93036AYL 25321.41991447  .00000964  00000+0  34702-3 0  9999
2 36073  74.0333   8.9735 0023222  85.4659 274.9145 14.34909125698442
COSMOS 2251 DEB         
1 36074U 93036AYM 25323.90227608  .00002559  00000+0  75521-3 0  9993
2 36074  73.9935  23.0484 0042443 121.6905 238.8401 14.43545069855803
COSMOS 2251 DEB         
1 36366U 93036AYT 25325.28432735  .00006938  00000+0  24261-2 0  9998
2 36366  74.0659 312.2136 0090907 344.9179  14.9263 14.33036464859817
COSMOS 2251 DEB         
1 36367U 93036AYU 25323.61228454  .00001929  00000+0  12915-2 0  9993
2 36367  74.1005 270.4244 0262519 348.3619  11.1508 13.86169183572091
COSMOS 2251 DEB         
1 36369U 93036AYW 25324.67547117  .00011152  00000+0  17386-2 0  9998
2 36369  74.0302 113.7405 0013772 196.3273 163.7457 14.72923674855979
COSMOS 2251 DEB         
1 36371U 93036AYY 25318.04614923  .00030251  00000+0  50442-2 0  9996
2 36371  74.0138 217.2545 0012240 259.8935 100.0855 14.69794379710232
COSMOS 2251 DEB         
1 36379U 93036AZG 25320.40139391  .00001392  00000+0  48213-3 0  9996
2 36379  74.0133 355.2527 0044953 131.9658 244.5172 14.36020181644505
COSMOS 2251 DEB         
1 36385U 93036AZN 25324.65650353  .00011549  00000+0  15758-2 0  9992
2 36385  73.9702 197.6949 0141204  17.1314 343.4551 14.71961695847776
